#dP2022 11 27  0  0  0.00000000      96 __u+U ITR14 FIT  IAC
## 2238      0.00000000   900.00000000 59910 0.0000000000000
+  128   C01C02C03C04C05C06C07C08C09C10C11C12C13C14C16C19C20
+        C21C22C23C24C25C26C27C28C29C30C32C33C34C35C36C37C38
+        C39C40C41C42C43C44C45C46C60E01E02E03E04E05E07E08E09
+        E10E11E12E13E14E15E18E19E21E24E25E26E27E30E31E33E34
+        E36G01G02G03G04G05G06G07G08G09G10G11G12G13G14G15G16
+        G17G18G19G20G21G22G23G24G25G26G27G29G30G31G32J02J03
+        J04J07R01R02R03R04R05R06R07R08R09R10R11R12R13R14R15
+        R17R18R19R20R21R22R23R24R25  0  0  0  0  0  0  0  0
++        17 17 17 17 17  9  9 10  8  9  9  9 10  9  9  7  7
++         7  7  7  7  7  7  7  7  7  7  7  7  8  7  7  7  8
++         8  8  7  8  7  8  7  7 17  4  5  4 12  4  4  4  4
++         4  4  4  4  5  4  4  4  4  4  4  4  4  5  4  4  5
++         5  4  4  4  4  4  4  4  4  4  4  4  4  3  4  4  4
++         4  4  4  4  4  4  4  4  4  4  4  4  4  4  4  9  8
++         9 17  7  6  6  6  6 15  6  6  6 15  6  9  8  6  9
++         6  6  7  8  6  8 15  6  8  0  0  0  0  0  0  0  0
%c M  cc GPS ccc cccc cccc cccc cccc ccccc ccccc ccccc ccccc
%c cc cc ccc ccc cccc cccc cccc cccc ccccc ccccc ccccc ccccc
%f  0.0000000  0.000000000  0.00000000000  0.000000000000000
%f  0.0000000  0.000000000  0.00000000000  0.000000000000000
%i    0    0    0    0      0      0      0      0         0
%i    0    0    0    0      0      0      0      0         0
/* INFORMATION & ANALYSIS CENTER (IAC)            RAPID DATA
/* S/V CLOCKS ARE ALIGNED TO GNSS TIME                      
/* G:C1WC2W R:C1PC2P E:C1XC5X C:C2IC6I J:C1CC2S             
/* PCV:IGS14_2233 OL/AL:FES2004  NONE     YN ORB:CoN CLK:CoN
*  2022 11 27  6 15  0.00000000
PC01 -34346.515806  24451.237396   -650.102378    935.235656
PC02   4568.984942  41983.342802    290.612815    340.531917
PC03 -14787.447810  39514.529128   -471.992940   -126.143895
PC04 -39645.594087  14368.451922   -617.998458   -122.888170
PC05  21855.917005  36093.690310    743.864222    -27.435662
PC06  -6096.131385  23932.990220  34179.971507     -7.914161
PC07 -16170.229235  37149.320160 -11907.731872    156.773589
PC08  -1086.922473  36497.900576 -20912.773551    516.911100
PC09   3095.657083  26055.419679  33468.078827   -796.919911
PC10  -9888.549453  37129.933128 -17609.620549     61.510586
PC11  -9549.505287  13513.562666 -22401.554692   -268.916647
PC12 -24909.721607   4468.623875 -11732.096990    319.603059
PC13   4650.630335  39506.547055 -13354.615619    143.681934
PC14 -12772.756599  24141.173482   5863.193517    212.648997
PC16 -12064.011037  21634.003615  34274.476486    110.941106
PC19   5132.687823 -23407.014672 -14274.451013   -909.458416
PC20  17504.880829 -21644.980758   1804.013395    824.787054
PC21 -20256.896711   6664.946349 -17997.821486   -910.741079
PC22 -10817.727768 -11730.313614 -22899.773299   -771.352903
PC23  15597.558038  21719.798863  -7961.647799   -874.492410
PC24 -10682.129409  14252.448430  21461.150727   -751.976337
PC25   5046.101890  25994.407226   8757.742802     30.803570
PC26 -18117.589343  -3425.180858  20942.388931    -41.701205
PC27  27653.608904    984.528752   3645.045603     57.554068
PC28  21891.760709  11705.779086 -12734.833891     40.661408
PC29  -2791.291913 -16073.436512  22638.417063     46.004872
PC30  18252.783656 -10988.569391  18030.437044      1.084924
PC32  20189.107850  -6695.232146  18072.092339   -703.069530
PC33  -5066.786345  23491.021920  14191.123741   -903.875198
PC34 -17157.380121  11580.256769 -18712.871879     48.357758
PC35 -21093.686704 -11727.383496  13978.730059    106.884054
PC36  -3981.554612 -26006.389961  -9303.922555   -810.331022
PC37  18250.430546   5243.299842 -20429.617179   -904.312846
PC38  -6838.395232  32550.264025 -25784.074421     40.976356
PC39 -16153.253635  20510.275842  33084.576998     -0.943542
PC40 -24110.672328  33302.734821  -9823.416062     -8.956853
PC41  10465.090558  12249.889451  22830.624933   -318.788608
PC42 -18006.379939  21120.669998  -2936.635055   -741.073754
PC43   1847.535601  16183.244286 -22664.986087     27.126507
PC44 -27675.717121    -68.101637  -3462.196551    126.833262
PC45 -15708.333844 -21527.792650   8327.635472    -27.497011
PC46   9361.099402 -15941.668409 -20920.280291    -15.723099
PC60   7298.924384  41501.528307  -1278.552007     -0.793185
PE01   2383.236426 -29427.647327   2222.885728   -571.125525
PE02  -2208.911409  29401.434962  -2470.088364      5.081073
PE03  -3938.734472  18834.308746  22484.637283   -624.047406
PE04 -16555.062066 -10127.047033 -22350.710001     -1.670069
PE05 -22583.511142  16662.730732   9397.794134   -120.676624
PE07  27794.206586  -4824.879247   8957.049685     -2.570874
PE08  16508.123945   9974.028704  22445.015841   -639.109066
PE09 -27733.810650   4780.942435  -9192.118564   -743.605985
PE10 -25293.096921 -14202.137901  -5927.889889   -493.709412
PE11 -24521.860426  -5983.958194 -15461.046832   1135.207316
PE12 -21927.547118 -19542.498785   3632.100386   -299.429979
PE13  24755.930261   6739.045330  14768.331099    430.522284
PE14 -29277.557019   5309.253796   2923.642557     68.250486
PE15  21833.905809  19595.754341  -3914.696339    704.758293
PE18  23580.256815   4642.625468 -12255.188116   -695.652063
PE19   6955.875548 -19116.212344 -21507.013567  -3891.458135
PE21  12893.833475 -22354.702294 -14505.892764   -497.005081
PE24 -16904.712409    782.973055  24273.255139   -969.945282
PE25 -13036.993750  22094.614045  14763.162214   -593.620195
PE26  12495.907838 -10708.966484  24610.824655  -1892.489400
PE27  16925.030725  -2008.208703 -24197.724918   -449.367739
PE30  10531.614537  20018.885366 -19087.234985  -1031.480114
PE31 -10956.339346 -19344.043948  19558.015891   -509.199460
PE33  -6030.845910 -20805.965109  20179.783033   -455.621032
PE34   6231.636553  20836.882735 -20072.156317    -16.683203
PE36 -13142.380276   9922.227757 -24589.248199   -466.862042
PG01  21774.605177  13589.983676   7177.635905    245.842845
PG02 -22774.028115  -9654.597342  -8760.029308   -635.927566
PG03  13096.955362   8275.799548  21466.640398   -374.411062
PG04  23222.221567   2456.042164  12756.635969    -79.157978
PG05  -7400.150035 -20535.164695 -15221.370371   -105.863139
PG06   2469.947660 -16296.364066  20873.900364    527.757584
PG07  19546.448886    476.582976 -17769.823060    282.251018
PG08  15329.751462   9197.739199 -19801.424239    -95.815014
PG09  25461.218160  -7243.663974   2382.942070   -262.496265
PG10 -11297.953678  21600.141889  -9991.881748    -13.624478
PG11  -8547.692720 -21392.936823  13258.945358    -46.485522
PG12 -12279.919386  -9976.172230  21081.137962   -309.089436
PG13  -6977.763133 -13892.408115 -21730.990120    431.873500
PG14  13347.687383 -19704.819284 -11661.299744    -77.204826
PG15 -16586.834121  -8145.596275 -19618.052309     -8.972114
PG16   1700.114972  23449.886025 -12170.392269   -526.738569
PG17  20502.568535 -13170.318018  11101.078228    681.313381
PG18 -17840.629511   1722.361519 -19648.001641    -37.198807
PG19  10932.853864 -15194.975626  18505.152886    242.819477
PG20  -1112.399979 -26486.053126  -3032.559108    467.369782
PG21  21272.116817  16548.571641   -651.393567    155.163601
PG22  -7378.573849  16200.255303  20081.533577    372.912381
PG23 -14822.605433  12283.610584 -18240.924579     -0.694709
PG24 -22316.960218 -14578.040350   2336.436753     41.480771
PG25 -15593.464516   2102.100461  21062.341677    396.573995
PG26  -3593.972893  26129.358613   -174.854292    236.953222
PG27   3244.107819  14819.127552 -22003.030026    168.228651
PG29 -26018.774361   3578.828330   4194.139115   -570.038416
PG30  11169.834970 -11077.424166 -21314.627469   -536.246338
PG31  -1828.943385  17375.926296  19708.207546   -201.473762
PG32 -17403.664900  15426.492071  12794.120733   -309.905165
PJ02 -29060.585826  26511.264036  20296.161377     -0.198271
PJ03 -28211.716906  16669.245916 -21854.080786     -5.439099
PJ04 -24174.431782  33663.525920  -3153.970818    113.804085
PJ07 -25409.449465  33640.863491     22.286401      0.023458
PR01    459.072994 -14513.660031 -20975.216520     18.562028
PR02 -14403.029148   -181.970794 -20995.680439    -23.387611
PR03 -20059.298782  13326.965311  -8271.169364     68.013975
PR04 -14587.256397  18988.348196   8788.990624    166.423376
PR05  -1128.912448  14342.854170  21060.221142    103.587003
PR06  15199.249153  -1188.041049  20443.698162    -82.364967
PR07  20122.777857 -13770.431217   7620.220242     45.050934
PR08  14456.645841 -19092.180576  -8785.378193    -68.286515
PR09  12561.560098  12623.906904 -18279.123358     89.834865
PR10  10304.252693  -4189.306909 -22966.795345    -88.163464
PR11   2229.105310 -20531.544871 -14954.495797     18.483417
PR12  -7295.402382 -24253.868407   3149.174086     23.184371
PR13 -12113.204790 -14201.035551  17372.511997    -29.345591
PR14  -9913.052344   5920.844715  22755.986002     24.083603
PR15  -1987.243472  21160.767122  14122.057773     92.713534
PR17 -21185.509842    149.151510 -14224.570862    581.770513
PR18  -7250.567984   8477.147633 -22913.538077     53.998689
PR19   8734.489032  12663.263983 -20338.110673   -212.451473
PR20  23272.231149   9897.904842  -3462.446100    -82.895492
PR21  20167.075811   -922.842503  15578.105723   -352.939784
PR22   6971.467085  -8924.479748  22887.529352     19.665705
PR23 -13811.694614 -12680.299048  17294.466749    -63.536308
PR24 -23702.700731  -9027.309995   2833.230426    129.061664
PR25  21402.329637    915.820445  13839.148366     47.382989
EOF
